STARLINK-36698          
1 67709U 26025S   26054.16668981 -.00365463  00000+0 -19627-2 0  9991
2 67709  97.2699 165.0553 0000899  76.6383   1.8986 15.81097676  3518
STARLINK-36344          
1 67710U 26025T   26054.16668981  .00353642  00000+0  17876-2 0  9991
2 67710  97.2708 165.0445 0001789  49.1666   5.0967 15.80638251  3670
STARLINK-36687          
1 67711U 26025U   26054.16668981 -.00034042  00000+0 -17752-3 0  9998
2 67711  97.2702 165.0486 0001005  58.6893   6.8850 15.80836429  3675
STARLINK-36705          
1 67712U 26025V   26054.16668981 -.01067336  00000+0 -60396-2 0  9993
2 67712  97.2689 165.0597 0001467  60.2456  31.7420 15.81713629  3575
STARLINK-36708          
1 67713U 26025W   26054.16668981 -.01527831  00000+0 -82192-2 0  9993
2 67713  97.2686 165.0740 0001950  65.4224  58.5824 15.82879834  3577
STARLINK-36702          
1 67714U 26025X   26054.16668981 -.01630987  00000+0 -89610-2 0  9993
2 67714  97.2684 165.0690 0001817  62.2796  52.0493 15.82630161  3301
STARLINK-36718          
1 67715U 26025Y   26054.16668981 -.01620518  00000+0 -84757-2 0  9990
2 67715  97.2686 165.0838 0001540  65.7808  81.2599 15.83652887  3517
STARLINK-36715          
1 67716U 26025Z   26054.16668981 -.01613041  00000+0 -85708-2 0  9991
2 67716  97.2683 165.0786 0001819  57.6436  78.5767 15.83303205  3572
STARLINK-36385          
1 67717U 26025AA  26054.16668981 -.01532871  00000+0 -85106-2 0  9995
2 67717  97.2692 165.0645 0001630  56.1477  46.5639 15.82222913  3575
CZ-2F DEB               
1 67718U 26024E   26053.51066767  .00241116  00000+0  46594-2 0  9991
2 67718  50.3142  92.9451 0253411 220.3060 137.8870 15.18825157  2329
CZ-2F DEB               
1 67719U 26024F   26054.17216258  .00169721  00000+0  42534-2 0  9998
2 67719  49.7906  91.5557 0327083 213.2836 144.7153 14.99106393  2065
CZ-2F DEB               
1 67720U 26024G   26054.13393259  .00167767  00000+0  43174-2 0  9992
2 67720  49.8300  92.0680 0337813 209.5657 148.5804 14.96435137  2377
