CCSDS_OMM_VERS = 2.0
CREATION_DATE  = 
ORIGINATOR     = 

OBJECT_NAME    = STARLINK-36698
OBJECT_ID      = 2026-025S
CENTER_NAME    = EARTH
REF_FRAME      = TEME
TIME_SYSTEM    = UTC
MEAN_ELEMENT_THEORY = SGP/SGP4

EPOCH          = 2026-02-23T04:00:01.999584
MEAN_MOTION    = 15.81097676
ECCENTRICITY   = .0000899
INCLINATION    = 97.2699
RA_OF_ASC_NODE = 165.0553
ARG_OF_PERICENTER = 76.6383
MEAN_ANOMALY   = 1.8986

EPHEMERIS_TYPE = 0
CLASSIFICATION_TYPE = U
NORAD_CAT_ID   = 67709
ELEMENT_SET_NO = 999
REV_AT_EPOCH   = 351
BSTAR          = -.19627E-2
MEAN_MOTION_DOT = -.365463E-2
MEAN_MOTION_DDOT = 0

CCSDS_OMM_VERS = 2.0
CREATION_DATE  = 
ORIGINATOR     = 

OBJECT_NAME    = STARLINK-36344
OBJECT_ID      = 2026-025T
CENTER_NAME    = EARTH
REF_FRAME      = TEME
TIME_SYSTEM    = UTC
MEAN_ELEMENT_THEORY = SGP/SGP4

EPOCH          = 2026-02-23T04:00:01.999584
MEAN_MOTION    = 15.80638251
ECCENTRICITY   = .0001789
INCLINATION    = 97.2708
RA_OF_ASC_NODE = 165.0445
ARG_OF_PERICENTER = 49.1666
MEAN_ANOMALY   = 5.0967

EPHEMERIS_TYPE = 0
CLASSIFICATION_TYPE = U
NORAD_CAT_ID   = 67710
ELEMENT_SET_NO = 999
REV_AT_EPOCH   = 367
BSTAR          = .17876E-2
MEAN_MOTION_DOT = .353642E-2
MEAN_MOTION_DDOT = 0

CCSDS_OMM_VERS = 2.0
CREATION_DATE  = 
ORIGINATOR     = 

OBJECT_NAME    = STARLINK-36687
OBJECT_ID      = 2026-025U
CENTER_NAME    = EARTH
REF_FRAME      = TEME
TIME_SYSTEM    = UTC
MEAN_ELEMENT_THEORY = SGP/SGP4

EPOCH          = 2026-02-23T04:00:01.999584
MEAN_MOTION    = 15.80836429
ECCENTRICITY   = .0001005
INCLINATION    = 97.2702
RA_OF_ASC_NODE = 165.0486
ARG_OF_PERICENTER = 58.6893
MEAN_ANOMALY   = 6.8850

EPHEMERIS_TYPE = 0
CLASSIFICATION_TYPE = U
NORAD_CAT_ID   = 67711
ELEMENT_SET_NO = 999
REV_AT_EPOCH   = 367
BSTAR          = -.17752E-3
MEAN_MOTION_DOT = -.34042E-3
MEAN_MOTION_DDOT = 0

CCSDS_OMM_VERS = 2.0
CREATION_DATE  = 
ORIGINATOR     = 

OBJECT_NAME    = STARLINK-36705
OBJECT_ID      = 2026-025V
CENTER_NAME    = EARTH
REF_FRAME      = TEME
TIME_SYSTEM    = UTC
MEAN_ELEMENT_THEORY = SGP/SGP4

EPOCH          = 2026-02-23T04:00:01.999584
MEAN_MOTION    = 15.81713629
ECCENTRICITY   = .0001467
INCLINATION    = 97.2689
RA_OF_ASC_NODE = 165.0597
ARG_OF_PERICENTER = 60.2456
MEAN_ANOMALY   = 31.7420

EPHEMERIS_TYPE = 0
CLASSIFICATION_TYPE = U
NORAD_CAT_ID   = 67712
ELEMENT_SET_NO = 999
REV_AT_EPOCH   = 357
BSTAR          = -.60396E-2
MEAN_MOTION_DOT = -.1067336E-1
MEAN_MOTION_DDOT = 0

CCSDS_OMM_VERS = 2.0
CREATION_DATE  = 
ORIGINATOR     = 

OBJECT_NAME    = STARLINK-36708
OBJECT_ID      = 2026-025W
CENTER_NAME    = EARTH
REF_FRAME      = TEME
TIME_SYSTEM    = UTC
MEAN_ELEMENT_THEORY = SGP/SGP4

EPOCH          = 2026-02-23T04:00:01.999584
MEAN_MOTION    = 15.82879834
ECCENTRICITY   = .000195
INCLINATION    = 97.2686
RA_OF_ASC_NODE = 165.0740
ARG_OF_PERICENTER = 65.4224
MEAN_ANOMALY   = 58.5824

EPHEMERIS_TYPE = 0
CLASSIFICATION_TYPE = U
NORAD_CAT_ID   = 67713
ELEMENT_SET_NO = 999
REV_AT_EPOCH   = 357
BSTAR          = -.82192E-2
MEAN_MOTION_DOT = -.1527831E-1
MEAN_MOTION_DDOT = 0

CCSDS_OMM_VERS = 2.0
CREATION_DATE  = 
ORIGINATOR     = 

OBJECT_NAME    = STARLINK-36702
OBJECT_ID      = 2026-025X
CENTER_NAME    = EARTH
REF_FRAME      = TEME
TIME_SYSTEM    = UTC
MEAN_ELEMENT_THEORY = SGP/SGP4

EPOCH          = 2026-02-23T04:00:01.999584
MEAN_MOTION    = 15.82630161
ECCENTRICITY   = .0001817
INCLINATION    = 97.2684
RA_OF_ASC_NODE = 165.0690
ARG_OF_PERICENTER = 62.2796
MEAN_ANOMALY   = 52.0493

EPHEMERIS_TYPE = 0
CLASSIFICATION_TYPE = U
NORAD_CAT_ID   = 67714
ELEMENT_SET_NO = 999
REV_AT_EPOCH   = 330
BSTAR          = -.8961E-2
MEAN_MOTION_DOT = -.1630987E-1
MEAN_MOTION_DDOT = 0

CCSDS_OMM_VERS = 2.0
CREATION_DATE  = 
ORIGINATOR     = 

OBJECT_NAME    = STARLINK-36718
OBJECT_ID      = 2026-025Y
CENTER_NAME    = EARTH
REF_FRAME      = TEME
TIME_SYSTEM    = UTC
MEAN_ELEMENT_THEORY = SGP/SGP4

EPOCH          = 2026-02-23T04:00:01.999584
MEAN_MOTION    = 15.83652887
ECCENTRICITY   = .000154
INCLINATION    = 97.2686
RA_OF_ASC_NODE = 165.0838
ARG_OF_PERICENTER = 65.7808
MEAN_ANOMALY   = 81.2599

EPHEMERIS_TYPE = 0
CLASSIFICATION_TYPE = U
NORAD_CAT_ID   = 67715
ELEMENT_SET_NO = 999
REV_AT_EPOCH   = 351
BSTAR          = -.84757E-2
MEAN_MOTION_DOT = -.1620518E-1
MEAN_MOTION_DDOT = 0

CCSDS_OMM_VERS = 2.0
CREATION_DATE  = 
ORIGINATOR     = 

OBJECT_NAME    = STARLINK-36715
OBJECT_ID      = 2026-025Z
CENTER_NAME    = EARTH
REF_FRAME      = TEME
TIME_SYSTEM    = UTC
MEAN_ELEMENT_THEORY = SGP/SGP4

EPOCH          = 2026-02-23T04:00:01.999584
MEAN_MOTION    = 15.83303205
ECCENTRICITY   = .0001819
INCLINATION    = 97.2683
RA_OF_ASC_NODE = 165.0786
ARG_OF_PERICENTER = 57.6436
MEAN_ANOMALY   = 78.5767

EPHEMERIS_TYPE = 0
CLASSIFICATION_TYPE = U
NORAD_CAT_ID   = 67716
ELEMENT_SET_NO = 999
REV_AT_EPOCH   = 357
BSTAR          = -.85708E-2
MEAN_MOTION_DOT = -.1613041E-1
MEAN_MOTION_DDOT = 0

CCSDS_OMM_VERS = 2.0
CREATION_DATE  = 
ORIGINATOR     = 

OBJECT_NAME    = STARLINK-36385
OBJECT_ID      = 2026-025AA
CENTER_NAME    = EARTH
REF_FRAME      = TEME
TIME_SYSTEM    = UTC
MEAN_ELEMENT_THEORY = SGP/SGP4

EPOCH          = 2026-02-23T04:00:01.999584
MEAN_MOTION    = 15.82222913
ECCENTRICITY   = .000163
INCLINATION    = 97.2692
RA_OF_ASC_NODE = 165.0645
ARG_OF_PERICENTER = 56.1477
MEAN_ANOMALY   = 46.5639

EPHEMERIS_TYPE = 0
CLASSIFICATION_TYPE = U
NORAD_CAT_ID   = 67717
ELEMENT_SET_NO = 999
REV_AT_EPOCH   = 357
BSTAR          = -.85106E-2
MEAN_MOTION_DOT = -.1532871E-1
MEAN_MOTION_DDOT = 0

CCSDS_OMM_VERS = 2.0
CREATION_DATE  = 
ORIGINATOR     = 

OBJECT_NAME    = CZ-2F DEB
OBJECT_ID      = 2026-024E
CENTER_NAME    = EARTH
REF_FRAME      = TEME
TIME_SYSTEM    = UTC
MEAN_ELEMENT_THEORY = SGP/SGP4

EPOCH          = 2026-02-22T12:15:21.686688
MEAN_MOTION    = 15.18825157
ECCENTRICITY   = .0253411
INCLINATION    = 50.3142
RA_OF_ASC_NODE = 92.9451
ARG_OF_PERICENTER = 220.3060
MEAN_ANOMALY   = 137.8870

EPHEMERIS_TYPE = 0
CLASSIFICATION_TYPE = U
NORAD_CAT_ID   = 67718
ELEMENT_SET_NO = 999
REV_AT_EPOCH   = 232
BSTAR          = .46594E-2
MEAN_MOTION_DOT = .241116E-2
MEAN_MOTION_DDOT = 0

CCSDS_OMM_VERS = 2.0
CREATION_DATE  = 
ORIGINATOR     = 

OBJECT_NAME    = CZ-2F DEB
OBJECT_ID      = 2026-024F
CENTER_NAME    = EARTH
REF_FRAME      = TEME
TIME_SYSTEM    = UTC
MEAN_ELEMENT_THEORY = SGP/SGP4

EPOCH          = 2026-02-23T04:07:54.846912
MEAN_MOTION    = 14.99106393
ECCENTRICITY   = .0327083
INCLINATION    = 49.7906
RA_OF_ASC_NODE = 91.5557
ARG_OF_PERICENTER = 213.2836
MEAN_ANOMALY   = 144.7153

EPHEMERIS_TYPE = 0
CLASSIFICATION_TYPE = U
NORAD_CAT_ID   = 67719
ELEMENT_SET_NO = 999
REV_AT_EPOCH   = 206
BSTAR          = .42534E-2
MEAN_MOTION_DOT = .169721E-2
MEAN_MOTION_DDOT = 0

CCSDS_OMM_VERS = 2.0
CREATION_DATE  = 
ORIGINATOR     = 

OBJECT_NAME    = CZ-2F DEB
OBJECT_ID      = 2026-024G
CENTER_NAME    = EARTH
REF_FRAME      = TEME
TIME_SYSTEM    = UTC
MEAN_ELEMENT_THEORY = SGP/SGP4

EPOCH          = 2026-02-23T03:12:51.775776
MEAN_MOTION    = 14.96435137
ECCENTRICITY   = .0337813
INCLINATION    = 49.8300
RA_OF_ASC_NODE = 92.0680
ARG_OF_PERICENTER = 209.5657
MEAN_ANOMALY   = 148.5804

EPHEMERIS_TYPE = 0
CLASSIFICATION_TYPE = U
NORAD_CAT_ID   = 67720
ELEMENT_SET_NO = 999
REV_AT_EPOCH   = 237
BSTAR          = .43174E-2
MEAN_MOTION_DOT = .167767E-2
MEAN_MOTION_DDOT = 0

